{
  "type": "FeatureCollection",
  "features": [
    {
      "type": "Feature",
      "properties": {
        "norad_id": 66747,
        "name": "W-SERIES 5",
        "group": "last-30-days",
        "lat": -78.66219760227105,
        "lon": 113.87422702069671,
        "alt_km": 520.5764415038848,
        "timestamp": "2025-12-27T16:33:28.972446+00:00",
        "meta_object_name": "W-SERIES 5",
        "meta_object_id": "2025-276CK",
        "meta_epoch": "2025-12-27T10:35:11.827968",
        "meta_mean_motion": 15.17579475,
        "meta_eccentricity": 0.0001808,
        "meta_inclination": 97.4404,
        "meta_ra_of_asc_node": 72.954,
        "meta_arg_of_pericenter": 186.2645,
        "meta_mean_anomaly": 173.8567,
        "meta_ephemeris_type": 0,
        "meta_classification_type": "U",
        "meta_norad_cat_id": 66747,
        "meta_element_set_no": 999,
        "meta_rev_at_epoch": 435,
        "meta_bstar": 0.00029278,
        "meta_mean_motion_dot": 5.816e-05,
        "meta_mean_motion_ddot": 0,
        "tle_line1": "1 66747U 25276CK  25361.44110912  .00005816  00000+0  29278-3 0  9991",
        "tle_line2": "2 66747  97.4404  72.9540 0001808 186.2645 173.8567 15.17579475  4356"
      },
      "geometry": {
        "type": "Point",
        "coordinates": [
          113.87422702069671,
          -78.66219760227105
        ]
      }
    },
    {
      "type": "Feature",
      "properties": {
        "norad_id": 66748,
        "name": "TRANSPORTER-15CL",
        "group": "last-30-days",
        "lat": -15.893552344427864,
        "lon": 75.35604583548343,
        "alt_km": 515.8369445088438,
        "timestamp": "2025-12-27T16:33:28.972459+00:00",
        "meta_object_name": "TRANSPORTER-15CL",
        "meta_object_id": "2025-276CL",
        "meta_epoch": "2025-12-27T10:18:11.829312",
        "meta_mean_motion": 15.18697519,
        "meta_eccentricity": 0.0002245,
        "meta_inclination": 97.4399,
        "meta_ra_of_asc_node": 72.9672,
        "meta_arg_of_pericenter": 204.1774,
        "meta_mean_anomaly": 155.9355,
        "meta_ephemeris_type": 0,
        "meta_classification_type": "U",
        "meta_norad_cat_id": 66748,
        "meta_element_set_no": 999,
        "meta_rev_at_epoch": 435,
        "meta_bstar": 0.0010792,
        "meta_mean_motion_dot": 0.00022371,
        "meta_mean_motion_ddot": 0,
        "tle_line1": "1 66748U 25276CL  25361.42930358  .00022371  00000+0  10792-2 0  9999",
        "tle_line2": "2 66748  97.4399  72.9672 0002245 204.1774 155.9355 15.18697519  4352"
      },
      "geometry": {
        "type": "Point",
        "coordinates": [
          75.35604583548343,
          -15.893552344427864
        ]
      }
    },
    {
      "type": "Feature",
      "properties": {
        "norad_id": 66749,
        "name": "TRANSPORTER-15CM",
        "group": "last-30-days",
        "lat": -52.05872669783655,
        "lon": 82.85338973887019,
        "alt_km": 520.151688788872,
        "timestamp": "2025-12-27T16:33:28.972469+00:00",
        "meta_object_name": "TRANSPORTER-15CM",
        "meta_object_id": "2025-276CM",
        "meta_epoch": "2025-12-27T10:27:41.332320",
        "meta_mean_motion": 15.1793757,
        "meta_eccentricity": 0.0002265,
        "meta_inclination": 97.4393,
        "meta_ra_of_asc_node": 72.9555,
        "meta_arg_of_pericenter": 174.2182,
        "meta_mean_anomaly": 185.9079,
        "meta_ephemeris_type": 0,
        "meta_classification_type": "U",
        "meta_norad_cat_id": 66749,
        "meta_element_set_no": 999,
        "meta_rev_at_epoch": 435,
        "meta_bstar": 0.00040688,
        "meta_mean_motion_dot": 8.195e-05,
        "meta_mean_motion_ddot": 0,
        "tle_line1": "1 66749U 25276CM  25361.43589505  .00008195  00000+0  40688-3 0  9991",
        "tle_line2": "2 66749  97.4393  72.9555 0002265 174.2182 185.9079 15.17937570  4358"
      },
      "geometry": {
        "type": "Point",
        "coordinates": [
          82.85338973887019,
          -52.05872669783655
        ]
      }
    },
    {
      "type": "Feature",
      "properties": {
        "norad_id": 66750,
        "name": "TRANSPORTER-15CN",
        "group": "last-30-days",
        "lat": -33.0551637254415,
        "lon": 78.10385988933726,
        "alt_km": 521.4119312213215,
        "timestamp": "2025-12-27T16:33:28.972480+00:00",
        "meta_object_name": "TRANSPORTER-15CN",
        "meta_object_id": "2025-276CN",
        "meta_epoch": "2025-12-27T10:22:34.927680",
        "meta_mean_motion": 15.1794724,
        "meta_eccentricity": 0.0004328,
        "meta_inclination": 97.4386,
        "meta_ra_of_asc_node": 72.9732,
        "meta_arg_of_pericenter": 136.6328,
        "meta_mean_anomaly": 223.5247,
        "meta_ephemeris_type": 0,
        "meta_classification_type": "U",
        "meta_norad_cat_id": 66750,
        "meta_element_set_no": 999,
        "meta_rev_at_epoch": 435,
        "meta_bstar": -0.0070297,
        "meta_mean_motion_dot": -0.00140011,
        "meta_mean_motion_ddot": 0,
        "tle_line1": "1 66750U 25276CN  25361.43234870 -.00140011  00000+0 -70297-2 0  9999",
        "tle_line2": "2 66750  97.4386  72.9732 0004328 136.6328 223.5247 15.17947240  4356"
      },
      "geometry": {
        "type": "Point",
        "coordinates": [
          78.10385988933726,
          -33.0551637254415
        ]
      }
    },
    {
      "type": "Feature",
      "properties": {
        "norad_id": 66751,
        "name": "ICEYE-X58",
        "group": "last-30-days",
        "lat": -55.269046131695234,
        "lon": 84.07893729285652,
        "alt_km": 520.2805163714984,
        "timestamp": "2025-12-27T16:33:28.972490+00:00",
        "meta_object_name": "ICEYE-X58",
        "meta_object_id": "2025-276CP",
        "meta_epoch": "2025-12-27T10:28:32.157120",
        "meta_mean_motion": 15.17843544,
        "meta_eccentricity": 0.0002764,
        "meta_inclination": 97.4405,
        "meta_ra_of_asc_node": 72.9635,
        "meta_arg_of_pericenter": 188.5143,
        "meta_mean_anomaly": 171.6044,
        "meta_ephemeris_type": 0,
        "meta_classification_type": "U",
        "meta_norad_cat_id": 66751,
        "meta_element_set_no": 999,
        "meta_rev_at_epoch": 435,
        "meta_bstar": 0.00030344,
        "meta_mean_motion_dot": 6.076e-05,
        "meta_mean_motion_ddot": 0,
        "tle_line1": "1 66751U 25276CP  25361.43648330  .00006076  00000+0  30344-3 0  9990",
        "tle_line2": "2 66751  97.4405  72.9635 0002764 188.5143 171.6044 15.17843544  4354"
      },
      "geometry": {
        "type": "Point",
        "coordinates": [
          84.07893729285652,
          -55.269046131695234
        ]
      }
    },
    {
      "type": "Feature",
      "properties": {
        "norad_id": 66752,
        "name": "ICEYE-X59",
        "group": "last-30-days",
        "lat": -74.16179742440916,
        "lon": 100.63118886258424,
        "alt_km": 519.7927177605497,
        "timestamp": "2025-12-27T16:33:28.972500+00:00",
        "meta_object_name": "ICEYE-X59",
        "meta_object_id": "2025-276CQ",
        "meta_epoch": "2025-12-27T10:33:46.380960",
        "meta_mean_motion": 15.17651458,
        "meta_eccentricity": 0.0002195,
        "meta_inclination": 97.4399,
        "meta_ra_of_asc_node": 72.9581,
        "meta_arg_of_pericenter": 212.8538,
        "meta_mean_anomaly": 147.256,
        "meta_ephemeris_type": 0,
        "meta_classification_type": "U",
        "meta_norad_cat_id": 66752,
        "meta_element_set_no": 999,
        "meta_rev_at_epoch": 435,
        "meta_bstar": 0.00049303,
        "meta_mean_motion_dot": 9.864e-05,
        "meta_mean_motion_ddot": 0,
        "tle_line1": "1 66752U 25276CQ  25361.44012015  .00009864  00000+0  49303-3 0  9990",
        "tle_line2": "2 66752  97.4399  72.9581 0002195 212.8538 147.2560 15.17651458  4357"
      },
      "geometry": {
        "type": "Point",
        "coordinates": [
          100.63118886258424,
          -74.16179742440916
        ]
      }
    },
    {
      "type": "Feature",
      "properties": {
        "norad_id": 66753,
        "name": "ICEYE-X60",
        "group": "last-30-days",
        "lat": -77.33293658499755,
        "lon": -142.3618096338332,
        "alt_km": 520.1517194586704,
        "timestamp": "2025-12-27T16:33:28.972512+00:00",
        "meta_object_name": "ICEYE-X60",
        "meta_object_id": "2025-276CR",
        "meta_epoch": "2025-12-27T12:15:05.821920",
        "meta_mean_motion": 15.17429278,
        "meta_eccentricity": 0.0001249,
        "meta_inclination": 97.4401,
        "meta_ra_of_asc_node": 73.0132,
        "meta_arg_of_pericenter": 239.2187,
        "meta_mean_anomaly": 120.8924,
        "meta_ephemeris_type": 0,
        "meta_classification_type": "U",
        "meta_norad_cat_id": 66753,
        "meta_element_set_no": 999,
        "meta_rev_at_epoch": 436,
        "meta_bstar": 0.00043659,
        "meta_mean_motion_dot": 8.67e-05,
        "meta_mean_motion_ddot": 0,
        "tle_line1": "1 66753U 25276CR  25361.51048405  .00008670  00000+0  43659-3 0  9993",
        "tle_line2": "2 66753  97.4401  73.0132 0001249 239.2187 120.8924 15.17429278  4363"
      },
      "geometry": {
        "type": "Point",
        "coordinates": [
          -142.3618096338332,
          -77.33293658499755
        ]
      }
    }
  ]
}